STARLINK-35129          
1 66077U 25235V   25321.83337963  .00017994  00000+0  45907-3 0  9995
2 66077  53.1610  46.4164 0001306  82.3808 266.7589 15.39600041  5870
STARLINK-35116          
1 66078U 25235W   25321.83337963  .00016210  00000+0  41454-3 0  9999
2 66078  53.1603  46.2604 0001767  82.2230 344.1610 15.39606601  5873
STARLINK-35402          
1 66079U 25235X   25321.83337963  .00020090  00000+0  51126-3 0  9998
2 66079  53.1600  46.2091 0001533  63.4544  28.6986 15.39598127  5874
STARLINK-35325          
1 66080U 25235Y   25321.83337963  .00020683  00000+0  52605-3 0  9991
2 66080  53.1609  46.3116 0001637  88.4917 312.1447 15.39597504  5871
STARLINK-35403          
1 66081U 25235Z   25321.74506069 -.00314959  00000+0 -66029-2 0  9995
2 66081  53.1627  46.5498 0003048  36.8733 323.2483 15.46007249  5769
STARLINK-35011          
1 66082U 25235AA  25321.61820189 -.00621537  00000+0 -14816-1 0  9993
2 66082  53.1611  47.1785 0003922  52.6050 307.5313 15.43409531  5740
STARLINK-35291          
1 66083U 25235AB  25321.67915157  .00111554  00000+0  19919-2 0  9991
2 66083  53.1623  46.8498 0003825  18.2460 341.8686 15.49209586  5722
STARLINK-35379          
1 66084U 25235AC  25321.67878431  .00089402  00000+0  15966-2 0  9999
2 66084  53.1619  46.8472 0001595  73.3299 286.7885 15.49319299  5758
STARLINK-35370          
1 66085U 25235AD  25321.67844000  .00086166  00000+0  15396-2 0  9996
2 66085  53.1622  46.8437 0001598  74.5291 285.5895 15.49322120  5724
STARLINK-35596          
1 66086U 25236A   25321.83337963 -.00036098  00000+0 -64381-3 0  9991
2 66086  53.1596 264.8900 0001078 103.8403  69.5131 15.49316523  5875
STARLINK-35563          
1 66087U 25236B   25321.83337963  .00096388  00000+0  17218-2 0  9994
2 66087  53.1596 264.8862 0000903 106.8239  68.3390 15.49275878  5814
STARLINK-35461          
1 66088U 25236C   25321.83337963  .00063187  00000+0  11361-2 0  9999
2 66088  53.1594 264.8790 0001053  88.8093  90.2953 15.49280801  5818
