CCSDS_OMM_VERS = 2.0
CREATION_DATE  = 
ORIGINATOR     = 

OBJECT_NAME    = STARLINK-35129
OBJECT_ID      = 2025-235V
CENTER_NAME    = EARTH
REF_FRAME      = TEME
TIME_SYSTEM    = UTC
MEAN_ELEMENT_THEORY = SGP/SGP4

EPOCH          = 2025-11-17T20:00:04.000032
MEAN_MOTION    = 15.39600041
ECCENTRICITY   = .0001306
INCLINATION    = 53.1610
RA_OF_ASC_NODE = 46.4164
ARG_OF_PERICENTER = 82.3808
MEAN_ANOMALY   = 266.7589

EPHEMERIS_TYPE = 0
CLASSIFICATION_TYPE = U
NORAD_CAT_ID   = 66077
ELEMENT_SET_NO = 999
REV_AT_EPOCH   = 587
BSTAR          = .45907E-3
MEAN_MOTION_DOT = .17994E-3
MEAN_MOTION_DDOT = 0

CCSDS_OMM_VERS = 2.0
CREATION_DATE  = 
ORIGINATOR     = 

OBJECT_NAME    = STARLINK-35116
OBJECT_ID      = 2025-235W
CENTER_NAME    = EARTH
REF_FRAME      = TEME
TIME_SYSTEM    = UTC
MEAN_ELEMENT_THEORY = SGP/SGP4

EPOCH          = 2025-11-17T20:00:04.000032
MEAN_MOTION    = 15.39606601
ECCENTRICITY   = .0001767
INCLINATION    = 53.1603
RA_OF_ASC_NODE = 46.2604
ARG_OF_PERICENTER = 82.2230
MEAN_ANOMALY   = 344.1610

EPHEMERIS_TYPE = 0
CLASSIFICATION_TYPE = U
NORAD_CAT_ID   = 66078
ELEMENT_SET_NO = 999
REV_AT_EPOCH   = 587
BSTAR          = .41454E-3
MEAN_MOTION_DOT = .1621E-3
MEAN_MOTION_DDOT = 0

CCSDS_OMM_VERS = 2.0
CREATION_DATE  = 
ORIGINATOR     = 

OBJECT_NAME    = STARLINK-35402
OBJECT_ID      = 2025-235X
CENTER_NAME    = EARTH
REF_FRAME      = TEME
TIME_SYSTEM    = UTC
MEAN_ELEMENT_THEORY = SGP/SGP4

EPOCH          = 2025-11-17T20:00:04.000032
MEAN_MOTION    = 15.39598127
ECCENTRICITY   = .0001533
INCLINATION    = 53.1600
RA_OF_ASC_NODE = 46.2091
ARG_OF_PERICENTER = 63.4544
MEAN_ANOMALY   = 28.6986

EPHEMERIS_TYPE = 0
CLASSIFICATION_TYPE = U
NORAD_CAT_ID   = 66079
ELEMENT_SET_NO = 999
REV_AT_EPOCH   = 587
BSTAR          = .51126E-3
MEAN_MOTION_DOT = .2009E-3
MEAN_MOTION_DDOT = 0

CCSDS_OMM_VERS = 2.0
CREATION_DATE  = 
ORIGINATOR     = 

OBJECT_NAME    = STARLINK-35325
OBJECT_ID      = 2025-235Y
CENTER_NAME    = EARTH
REF_FRAME      = TEME
TIME_SYSTEM    = UTC
MEAN_ELEMENT_THEORY = SGP/SGP4

EPOCH          = 2025-11-17T20:00:04.000032
MEAN_MOTION    = 15.39597504
ECCENTRICITY   = .0001637
INCLINATION    = 53.1609
RA_OF_ASC_NODE = 46.3116
ARG_OF_PERICENTER = 88.4917
MEAN_ANOMALY   = 312.1447

EPHEMERIS_TYPE = 0
CLASSIFICATION_TYPE = U
NORAD_CAT_ID   = 66080
ELEMENT_SET_NO = 999
REV_AT_EPOCH   = 587
BSTAR          = .52605E-3
MEAN_MOTION_DOT = .20683E-3
MEAN_MOTION_DDOT = 0

CCSDS_OMM_VERS = 2.0
CREATION_DATE  = 
ORIGINATOR     = 

OBJECT_NAME    = STARLINK-35403
OBJECT_ID      = 2025-235Z
CENTER_NAME    = EARTH
REF_FRAME      = TEME
TIME_SYSTEM    = UTC
MEAN_ELEMENT_THEORY = SGP/SGP4

EPOCH          = 2025-11-17T17:52:53.243616
MEAN_MOTION    = 15.46007249
ECCENTRICITY   = .0003048
INCLINATION    = 53.1627
RA_OF_ASC_NODE = 46.5498
ARG_OF_PERICENTER = 36.8733
MEAN_ANOMALY   = 323.2483

EPHEMERIS_TYPE = 0
CLASSIFICATION_TYPE = U
NORAD_CAT_ID   = 66081
ELEMENT_SET_NO = 999
REV_AT_EPOCH   = 576
BSTAR          = -.66029E-2
MEAN_MOTION_DOT = -.314959E-2
MEAN_MOTION_DDOT = 0

CCSDS_OMM_VERS = 2.0
CREATION_DATE  = 
ORIGINATOR     = 

OBJECT_NAME    = STARLINK-35011
OBJECT_ID      = 2025-235AA
CENTER_NAME    = EARTH
REF_FRAME      = TEME
TIME_SYSTEM    = UTC
MEAN_ELEMENT_THEORY = SGP/SGP4

EPOCH          = 2025-11-17T14:50:12.643296
MEAN_MOTION    = 15.43409531
ECCENTRICITY   = .0003922
INCLINATION    = 53.1611
RA_OF_ASC_NODE = 47.1785
ARG_OF_PERICENTER = 52.6050
MEAN_ANOMALY   = 307.5313

EPHEMERIS_TYPE = 0
CLASSIFICATION_TYPE = U
NORAD_CAT_ID   = 66082
ELEMENT_SET_NO = 999
REV_AT_EPOCH   = 574
BSTAR          = -.14816E-1
MEAN_MOTION_DOT = -.621537E-2
MEAN_MOTION_DDOT = 0

CCSDS_OMM_VERS = 2.0
CREATION_DATE  = 
ORIGINATOR     = 

OBJECT_NAME    = STARLINK-35291
OBJECT_ID      = 2025-235AB
CENTER_NAME    = EARTH
REF_FRAME      = TEME
TIME_SYSTEM    = UTC
MEAN_ELEMENT_THEORY = SGP/SGP4

EPOCH          = 2025-11-17T16:17:58.695648
MEAN_MOTION    = 15.49209586
ECCENTRICITY   = .0003825
INCLINATION    = 53.1623
RA_OF_ASC_NODE = 46.8498
ARG_OF_PERICENTER = 18.2460
MEAN_ANOMALY   = 341.8686

EPHEMERIS_TYPE = 0
CLASSIFICATION_TYPE = U
NORAD_CAT_ID   = 66083
ELEMENT_SET_NO = 999
REV_AT_EPOCH   = 572
BSTAR          = .19919E-2
MEAN_MOTION_DOT = .111554E-2
MEAN_MOTION_DDOT = 0

CCSDS_OMM_VERS = 2.0
CREATION_DATE  = 
ORIGINATOR     = 

OBJECT_NAME    = STARLINK-35379
OBJECT_ID      = 2025-235AC
CENTER_NAME    = EARTH
REF_FRAME      = TEME
TIME_SYSTEM    = UTC
MEAN_ELEMENT_THEORY = SGP/SGP4

EPOCH          = 2025-11-17T16:17:26.964384
MEAN_MOTION    = 15.49319299
ECCENTRICITY   = .0001595
INCLINATION    = 53.1619
RA_OF_ASC_NODE = 46.8472
ARG_OF_PERICENTER = 73.3299
MEAN_ANOMALY   = 286.7885

EPHEMERIS_TYPE = 0
CLASSIFICATION_TYPE = U
NORAD_CAT_ID   = 66084
ELEMENT_SET_NO = 999
REV_AT_EPOCH   = 575
BSTAR          = .15966E-2
MEAN_MOTION_DOT = .89402E-3
MEAN_MOTION_DDOT = 0

CCSDS_OMM_VERS = 2.0
CREATION_DATE  = 
ORIGINATOR     = 

OBJECT_NAME    = STARLINK-35370
OBJECT_ID      = 2025-235AD
CENTER_NAME    = EARTH
REF_FRAME      = TEME
TIME_SYSTEM    = UTC
MEAN_ELEMENT_THEORY = SGP/SGP4

EPOCH          = 2025-11-17T16:16:57.216000
MEAN_MOTION    = 15.49322120
ECCENTRICITY   = .0001598
INCLINATION    = 53.1622
RA_OF_ASC_NODE = 46.8437
ARG_OF_PERICENTER = 74.5291
MEAN_ANOMALY   = 285.5895

EPHEMERIS_TYPE = 0
CLASSIFICATION_TYPE = U
NORAD_CAT_ID   = 66085
ELEMENT_SET_NO = 999
REV_AT_EPOCH   = 572
BSTAR          = .15396E-2
MEAN_MOTION_DOT = .86166E-3
MEAN_MOTION_DDOT = 0

CCSDS_OMM_VERS = 2.0
CREATION_DATE  = 
ORIGINATOR     = 

OBJECT_NAME    = STARLINK-35596
OBJECT_ID      = 2025-236A
CENTER_NAME    = EARTH
REF_FRAME      = TEME
TIME_SYSTEM    = UTC
MEAN_ELEMENT_THEORY = SGP/SGP4

EPOCH          = 2025-11-17T20:00:04.000032
MEAN_MOTION    = 15.49316523
ECCENTRICITY   = .0001078
INCLINATION    = 53.1596
RA_OF_ASC_NODE = 264.8900
ARG_OF_PERICENTER = 103.8403
MEAN_ANOMALY   = 69.5131

EPHEMERIS_TYPE = 0
CLASSIFICATION_TYPE = U
NORAD_CAT_ID   = 66086
ELEMENT_SET_NO = 999
REV_AT_EPOCH   = 587
BSTAR          = -.64381E-3
MEAN_MOTION_DOT = -.36098E-3
MEAN_MOTION_DDOT = 0

CCSDS_OMM_VERS = 2.0
CREATION_DATE  = 
ORIGINATOR     = 

OBJECT_NAME    = STARLINK-35563
OBJECT_ID      = 2025-236B
CENTER_NAME    = EARTH
REF_FRAME      = TEME
TIME_SYSTEM    = UTC
MEAN_ELEMENT_THEORY = SGP/SGP4

EPOCH          = 2025-11-17T20:00:04.000032
MEAN_MOTION    = 15.49275878
ECCENTRICITY   = .0000903
INCLINATION    = 53.1596
RA_OF_ASC_NODE = 264.8862
ARG_OF_PERICENTER = 106.8239
MEAN_ANOMALY   = 68.3390

EPHEMERIS_TYPE = 0
CLASSIFICATION_TYPE = U
NORAD_CAT_ID   = 66087
ELEMENT_SET_NO = 999
REV_AT_EPOCH   = 581
BSTAR          = .17218E-2
MEAN_MOTION_DOT = .96388E-3
MEAN_MOTION_DDOT = 0

CCSDS_OMM_VERS = 2.0
CREATION_DATE  = 
ORIGINATOR     = 

OBJECT_NAME    = STARLINK-35461
OBJECT_ID      = 2025-236C
CENTER_NAME    = EARTH
REF_FRAME      = TEME
TIME_SYSTEM    = UTC
MEAN_ELEMENT_THEORY = SGP/SGP4

EPOCH          = 2025-11-17T20:00:04.000032
MEAN_MOTION    = 15.49280801
ECCENTRICITY   = .0001053
INCLINATION    = 53.1594
RA_OF_ASC_NODE = 264.8790
ARG_OF_PERICENTER = 88.8093
MEAN_ANOMALY   = 90.2953

EPHEMERIS_TYPE = 0
CLASSIFICATION_TYPE = U
NORAD_CAT_ID   = 66088
ELEMENT_SET_NO = 999
REV_AT_EPOCH   = 581
BSTAR          = .11361E-2
MEAN_MOTION_DOT = .63187E-3
MEAN_MOTION_DDOT = 0

